start=new Date('2023-04-19T00:00:00.000Z').valueOf();
sats=[{"EPHEMERIS_TYPE":"0","MEAN_MOTION_DOT":"0.00004752","LAUNCH_DATE":"2021-11-13","TLE_LINE1":"1 49426U 21104U   23108.88198681  .00004752  00000-0  31637-3 0  9997","TIME_SYSTEM":"UTC","TLE_LINE2":"2 49426  53.2156 288.8250 0001169  80.2161 279.8963 15.08847566 79232","FILE":"3889987","OBJECT_TYPE":"PAYLOAD","BSTAR":"0.00031637000000","SEMIMAJOR_AXIS":"6917.857","OBJECT_NAME":"STARLINK-3114","SITE":"AFETR","ECCENTRICITY":"0.00011690","PERIAPSIS":"538.914","MEAN_ANOMALY":"279.8963","MEAN_ELEMENT_THEORY":"SGP4","OBJECT_ID":"2021-104U","REF_FRAME":"TEME","APOAPSIS":"540.531","NORAD_CAT_ID":"49426","EPOCH":"2023-04-18T21:10:03.660384","ELEMENT_SET_NO":"999","ARG_OF_PERICENTER":"80.2161","CENTER_NAME":"EARTH","REV_AT_EPOCH":"7923","COUNTRY_CODE":"US","GP_ID":"230328938","DECAY_DATE":null,"MEAN_MOTION_DDOT":"0.0000000000000","RCS_SIZE":"LARGE","INCLINATION":"53.2156","CLASSIFICATION_TYPE":"U","PERIOD":"95.437","RA_OF_ASC_NODE":"288.8250","MEAN_MOTION":"15.08847566"},{"RCS_SIZE":"LARGE","MEAN_MOTION_DDOT":"0.0000000000000","INCLINATION":"53.2146","RA_OF_ASC_NODE":"288.8721","MEAN_MOTION":"15.08852836","CLASSIFICATION_TYPE":"U","PERIOD":"95.437","EPOCH":"2023-04-18T20:54:09.731808","ELEMENT_SET_NO":"999","APOAPSIS":"540.545","NORAD_CAT_ID":"49427","DECAY_DATE":null,"GP_ID":"230329686","ARG_OF_PERICENTER":"94.1139","CENTER_NAME":"EARTH","COUNTRY_CODE":"US","REV_AT_EPOCH":"7924","ECCENTRICITY":"0.00012130","SITE":"AFETR","OBJECT_NAME":"STARLINK-3131","SEMIMAJOR_AXIS":"6917.841","PERIAPSIS":"538.867","MEAN_ANOMALY":"265.9992","REF_FRAME":"TEME","MEAN_ELEMENT_THEORY":"SGP4","OBJECT_ID":"2021-104V","LAUNCH_DATE":"2021-11-13","MEAN_MOTION_DOT":"0.00024124","TLE_LINE1":"1 49427U 21104V   23108.87094597  .00024124  00000-0  15281-2 0  9999","EPHEMERIS_TYPE":"0","BSTAR":"0.00152810000000","TIME_SYSTEM":"UTC","TLE_LINE2":"2 49427  53.2146 288.8721 0001213  94.1139 265.9992 15.08852836 79249","OBJECT_TYPE":"PAYLOAD","FILE":"3889987"},{"MEAN_ANOMALY":"295.0507","REF_FRAME":"TEME","MEAN_ELEMENT_THEORY":"SGP4","OBJECT_ID":"2021-104W","SITE":"AFETR","OBJECT_NAME":"STARLINK-3121","ECCENTRICITY":"0.00008650","SEMIMAJOR_AXIS":"6917.781","PERIAPSIS":"539.048","TLE_LINE2":"2 49428  53.2149 288.9165 0000865  65.0575 295.0507 15.08872387 79248","TIME_SYSTEM":"UTC","OBJECT_TYPE":"PAYLOAD","FILE":"3889987","BSTAR":"0.00294280000000","EPHEMERIS_TYPE":"0","LAUNCH_DATE":"2021-11-13","MEAN_MOTION_DOT":"0.00046900","TLE_LINE1":"1 49428U 21104W   23108.86087231  .00046900  00000-0  29428-2 0  9990","CLASSIFICATION_TYPE":"U","PERIOD":"95.436","RA_OF_ASC_NODE":"288.9165","MEAN_MOTION":"15.08872387","RCS_SIZE":"LARGE","INCLINATION":"53.2149","MEAN_MOTION_DDOT":"0.0000000000000","ARG_OF_PERICENTER":"65.0575","CENTER_NAME":"EARTH","COUNTRY_CODE":"US","REV_AT_EPOCH":"7924","GP_ID":"230329937","DECAY_DATE":null,"APOAPSIS":"540.245","NORAD_CAT_ID":"49428","EPOCH":"2023-04-18T20:39:39.367584","ELEMENT_SET_NO":"999"},{"RCS_SIZE":"LARGE","MEAN_MOTION_DDOT":"0.0000000000000","INCLINATION":"53.2172","MEAN_MOTION":"15.08837051","RA_OF_ASC_NODE":"289.1877","PERIOD":"95.438","CLASSIFICATION_TYPE":"U","ELEMENT_SET_NO":"999","EPOCH":"2023-04-18T19:13:28.749216","NORAD_CAT_ID":"49430","APOAPSIS":"540.436","DECAY_DATE":null,"GP_ID":"230330185","REV_AT_EPOCH":"7923","COUNTRY_CODE":"US","ARG_OF_PERICENTER":"100.5559","CENTER_NAME":"EARTH","PERIAPSIS":"539.073","SEMIMAJOR_AXIS":"6917.889","SITE":"AFETR","OBJECT_NAME":"STARLINK-3138","ECCENTRICITY":"0.00009850","MEAN_ELEMENT_THEORY":"SGP4","OBJECT_ID":"2021-104Y","REF_FRAME":"TEME","MEAN_ANOMALY":"259.5544","TLE_LINE1":"1 49430U 21104Y   23108.80102719  .00000876  00000-0  73137-4 0  9996","MEAN_MOTION_DOT":"0.00000876","LAUNCH_DATE":"2021-11-13","EPHEMERIS_TYPE":"0","BSTAR":"0.00007313700000","FILE":"3889987","OBJECT_TYPE":"PAYLOAD","TIME_SYSTEM":"UTC","TLE_LINE2":"2 49430  53.2172 289.1877 0000985 100.5559 259.5544 15.08837051 79234"},{"PERIAPSIS":"539.205","ECCENTRICITY":"0.00011840","SITE":"AFETR","OBJECT_NAME":"STARLINK-3153","SEMIMAJOR_AXIS":"6918.159","REF_FRAME":"TEME","MEAN_ELEMENT_THEORY":"SGP4","OBJECT_ID":"2021-104Z","MEAN_ANOMALY":"278.4943","TLE_LINE1":"1 49431U 21104Z   23108.89400542 -.00047630  00000-0 -30020-2 0  9994","LAUNCH_DATE":"2021-11-13","MEAN_MOTION_DOT":"-0.00047630","EPHEMERIS_TYPE":"0","BSTAR":"-0.00300200000000","OBJECT_TYPE":"PAYLOAD","FILE":"3889911","TLE_LINE2":"2 49431  53.2144 288.7692 0001184  81.6184 278.4943 15.08748859 80321","TIME_SYSTEM":"UTC","INCLINATION":"53.2144","RCS_SIZE":"LARGE","MEAN_MOTION_DDOT":"0.0000000000000","MEAN_MOTION":"15.08748859","RA_OF_ASC_NODE":"288.7692","PERIOD":"95.443","CLASSIFICATION_TYPE":"U","ELEMENT_SET_NO":"999","EPOCH":"2023-04-18T21:27:22.068288","NORAD_CAT_ID":"49431","APOAPSIS":"540.843","DECAY_DATE":null,"GP_ID":"230307444","COUNTRY_CODE":"US","REV_AT_EPOCH":"8032","ARG_OF_PERICENTER":"81.6184","CENTER_NAME":"EARTH"},{"OBJECT_ID":"2021-104AA","MEAN_ELEMENT_THEORY":"SGP4","REF_FRAME":"TEME","MEAN_ANOMALY":"288.4016","PERIAPSIS":"538.995","SEMIMAJOR_AXIS":"6917.828","SITE":"AFETR","ECCENTRICITY":"0.00010100","OBJECT_NAME":"STARLINK-3158","FILE":"3889987","OBJECT_TYPE":"PAYLOAD","TIME_SYSTEM":"UTC","TLE_LINE2":"2 49432  53.2153 279.3460 0001010  71.7086 288.4016 15.08856994 79364","BSTAR":"0.00086525000000","EPHEMERIS_TYPE":"0","TLE_LINE1":"1 49432U 21104AA  23108.76609928  .00013516  00000-0  86525-3 0  9996","MEAN_MOTION_DOT":"0.00013516","LAUNCH_DATE":"2021-11-13","PERIOD":"95.436","CLASSIFICATION_TYPE":"U","MEAN_MOTION":"15.08856994","RA_OF_ASC_NODE":"279.3460","INCLINATION":"53.2153","RCS_SIZE":"LARGE","MEAN_MOTION_DDOT":"0.0000000000000","REV_AT_EPOCH":"7936","COUNTRY_CODE":"US","ARG_OF_PERICENTER":"71.7086","CENTER_NAME":"EARTH","GP_ID":"230329187","DECAY_DATE":null,"NORAD_CAT_ID":"49432","APOAPSIS":"540.392","ELEMENT_SET_NO":"999","EPOCH":"2023-04-18T18:23:10.977792"},{"PERIAPSIS":"538.896","SEMIMAJOR_AXIS":"6917.881","ECCENTRICITY":"0.00012290","SITE":"AFETR","OBJECT_NAME":"STARLINK-3079","OBJECT_ID":"2021-104AB","MEAN_ELEMENT_THEORY":"SGP4","REF_FRAME":"TEME","MEAN_ANOMALY":"273.2209","EPHEMERIS_TYPE":"0","TLE_LINE1":"1 49433U 21104AB  23108.69982536  .00001533  00000-0  11441-3 0  9999","MEAN_MOTION_DOT":"0.00001533","LAUNCH_DATE":"2021-11-13","FILE":"3889987","OBJECT_TYPE":"PAYLOAD","TLE_LINE2":"2 49433  53.2162 269.6422 0001229  86.8923 273.2209 15.08839811 80585","TIME_SYSTEM":"UTC","BSTAR":"0.00011441000000","INCLINATION":"53.2162","RCS_SIZE":"LARGE","MEAN_MOTION_DDOT":"0.0000000000000","PERIOD":"95.438","CLASSIFICATION_TYPE":"U","MEAN_MOTION":"15.08839811","RA_OF_ASC_NODE":"269.6422","NORAD_CAT_ID":"49433","APOAPSIS":"540.596","ELEMENT_SET_NO":"999","EPOCH":"2023-04-18T16:47:44.911104","REV_AT_EPOCH":"8058","COUNTRY_CODE":"US","ARG_OF_PERICENTER":"86.8923","CENTER_NAME":"EARTH","GP_ID":"230330437","DECAY_DATE":null},{"LAUNCH_DATE":"2021-11-13","MEAN_MOTION_DOT":"0.00002562","TLE_LINE1":"1 49434U 21104AC  23108.79830027  .00002562  00000-0  17898-3 0  9993","EPHEMERIS_TYPE":"0","BSTAR":"0.00017898000000","TIME_SYSTEM":"UTC","TLE_LINE2":"2 49434  53.2157 289.2115 0000895  74.6527 285.4564 15.08847280 80319","OBJECT_TYPE":"PAYLOAD","FILE":"3889987","SITE":"AFETR","OBJECT_NAME":"STARLINK-3134","ECCENTRICITY":"0.00008950","SEMIMAJOR_AXIS":"6917.858","PERIAPSIS":"539.104","MEAN_ANOMALY":"285.4564","REF_FRAME":"TEME","OBJECT_ID":"2021-104AC","MEAN_ELEMENT_THEORY":"SGP4","EPOCH":"2023-04-18T19:09:33.143328","ELEMENT_SET_NO":"999","APOAPSIS":"540.342","NORAD_CAT_ID":"49434","GP_ID":"230330685","DECAY_DATE":null,"ARG_OF_PERICENTER":"74.6527","CENTER_NAME":"EARTH","COUNTRY_CODE":"US","REV_AT_EPOCH":"8031","RCS_SIZE":"LARGE","INCLINATION":"53.2157","MEAN_MOTION_DDOT":"0.0000000000000","RA_OF_ASC_NODE":"289.2115","MEAN_MOTION":"15.08847280","CLASSIFICATION_TYPE":"U","PERIOD":"95.437"},{"GP_ID":"230328939","DECAY_DATE":null,"COUNTRY_CODE":"US","REV_AT_EPOCH":"7950","CENTER_NAME":"EARTH","ARG_OF_PERICENTER":"72.1901","ELEMENT_SET_NO":"999","EPOCH":"2023-04-18T18:29:48.743520","NORAD_CAT_ID":"49435","APOAPSIS":"540.459","MEAN_MOTION":"15.08849085","RA_OF_ASC_NODE":"269.3251","PERIOD":"95.437","CLASSIFICATION_TYPE":"U","MEAN_MOTION_DDOT":"0.0000000000000","RCS_SIZE":"LARGE","INCLINATION":"53.2162","BSTAR":"0.00042849000000","OBJECT_TYPE":"PAYLOAD","FILE":"3889987","TLE_LINE2":"2 49435  53.2162 269.3251 0001071  72.1901 287.9208 15.08849085 79508","TIME_SYSTEM":"UTC","TLE_LINE1":"1 49435U 21104AD  23108.77070305  .00006540  00000-0  42849-3 0  9991","LAUNCH_DATE":"2021-11-13","MEAN_MOTION_DOT":"0.00006540","EPHEMERIS_TYPE":"0","REF_FRAME":"TEME","OBJECT_ID":"2021-104AD","MEAN_ELEMENT_THEORY":"SGP4","MEAN_ANOMALY":"287.9208","PERIAPSIS":"538.977","SITE":"AFETR","OBJECT_NAME":"STARLINK-3117","ECCENTRICITY":"0.00010710","SEMIMAJOR_AXIS":"6917.853"},{"PERIAPSIS":"538.173","SEMIMAJOR_AXIS":"6917.809","SITE":"AFETR","ECCENTRICITY":"0.00021690","OBJECT_NAME":"STARLINK-3049","MEAN_ELEMENT_THEORY":"SGP4","OBJECT_ID":"2021-104AE","REF_FRAME":"TEME","MEAN_ANOMALY":"274.7376","TLE_LINE1":"1 49436U 21104AE  23108.70350401  .00027370  00000-0  17300-2 0  9990","MEAN_MOTION_DOT":"0.00027370","LAUNCH_DATE":"2021-11-13","EPHEMERIS_TYPE":"0","BSTAR":"0.00173000000000","FILE":"3889987","OBJECT_TYPE":"PAYLOAD","TIME_SYSTEM":"UTC","TLE_LINE2":"2 49436  53.2137 269.6228 0002169  85.3864 274.7376 15.08863400 79496","INCLINATION":"53.2137","RCS_SIZE":"LARGE","MEAN_MOTION_DDOT":"0.0000000000000","MEAN_MOTION":"15.08863400","RA_OF_ASC_NODE":"269.6228","PERIOD":"95.436","CLASSIFICATION_TYPE":"U","ELEMENT_SET_NO":"999","EPOCH":"2023-04-18T16:53:02.746464","NORAD_CAT_ID":"49436","APOAPSIS":"541.174","DECAY_DATE":null,"GP_ID":"230329687","REV_AT_EPOCH":"7949","COUNTRY_CODE":"US","ARG_OF_PERICENTER":"85.3864","CENTER_NAME":"EARTH"}];
